{
  "type": "FeatureCollection",
  "features": [
    {
      "type": "Feature",
      "properties": {
        "norad_id": 24946,
        "name": "IRIDIUM 33",
        "group": "iridium-33-debris",
        "lat": 71.85232523060301,
        "lon": -128.71702300889314,
        "alt_km": 763.9624757878319,
        "timestamp": "2025-12-26T14:28:48.087792+00:00",
        "meta_object_name": "IRIDIUM 33",
        "meta_object_id": "1997-051C",
        "meta_epoch": "2025-12-26T03:56:18.994272",
        "meta_mean_motion": 14.35046384,
        "meta_eccentricity": 0.00086109,
        "meta_inclination": 86.3856,
        "meta_ra_of_asc_node": 62.586,
        "meta_arg_of_pericenter": 157.3074,
        "meta_mean_anomaly": 202.8505,
        "meta_ephemeris_type": 0,
        "meta_classification_type": "U",
        "meta_norad_cat_id": 24946,
        "meta_element_set_no": 999,
        "meta_rev_at_epoch": 48027,
        "meta_bstar": 0.00010877031,
        "meta_mean_motion_dot": 3.3e-06,
        "meta_mean_motion_ddot": 0,
        "tle_line1": "1 24946U 97051C   25360.16410873  .00000330  00000+0  10877-3 0  9994",
        "tle_line2": "2 24946  86.3856  62.5860 0008610 157.3074 202.8505 14.35046384480273"
      },
      "geometry": {
        "type": "Point",
        "coordinates": [
          -128.71702300889314,
          71.85232523060301
        ]
      }
    },
    {
      "type": "Feature",
      "properties": {
        "norad_id": 33773,
        "name": "IRIDIUM 33 DEB",
        "group": "iridium-33-debris",
        "lat": 64.74501369967464,
        "lon": -132.95620349329084,
        "alt_km": 732.0493883219497,
        "timestamp": "2025-12-26T14:28:48.087827+00:00",
        "meta_object_name": "IRIDIUM 33 DEB",
        "meta_object_id": "1997-051L",
        "meta_epoch": "2025-12-26T03:57:58.913280",
        "meta_mean_motion": 14.43284045,
        "meta_eccentricity": 0.00133202,
        "meta_inclination": 86.3996,
        "meta_ra_of_asc_node": 54.8996,
        "meta_arg_of_pericenter": 107.9438,
        "meta_mean_anomaly": 252.3216,
        "meta_ephemeris_type": 0,
        "meta_classification_type": "U",
        "meta_norad_cat_id": 33773,
        "meta_element_set_no": 999,
        "meta_rev_at_epoch": 88541,
        "meta_bstar": 0.00027811517,
        "meta_mean_motion_dot": 9.57e-06,
        "meta_mean_motion_ddot": 0,
        "tle_line1": "1 33773U 97051L   25360.16526520  .00000957  00000+0  27812-3 0  9991",
        "tle_line2": "2 33773  86.3996  54.8996 0013320 107.9438 252.3216 14.43284045885410"
      },
      "geometry": {
        "type": "Point",
        "coordinates": [
          -132.95620349329084,
          64.74501369967464
        ]
      }
    },
    {
      "type": "Feature",
      "properties": {
        "norad_id": 33775,
        "name": "IRIDIUM 33 DEB",
        "group": "iridium-33-debris",
        "lat": 70.30809825197456,
        "lon": -146.605002426158,
        "alt_km": 735.9094504309423,
        "timestamp": "2025-12-26T14:28:48.087843+00:00",
        "meta_object_name": "IRIDIUM 33 DEB",
        "meta_object_id": "1997-051N",
        "meta_epoch": "2025-12-26T04:15:04.667040",
        "meta_mean_motion": 14.41496129,
        "meta_eccentricity": 0.00153643,
        "meta_inclination": 86.3623,
        "meta_ra_of_asc_node": 43.8159,
        "meta_arg_of_pericenter": 114.8502,
        "meta_mean_anomaly": 304.1975,
        "meta_ephemeris_type": 0,
        "meta_classification_type": "U",
        "meta_norad_cat_id": 33775,
        "meta_element_set_no": 999,
        "meta_rev_at_epoch": 88334,
        "meta_bstar": 0.00030508571,
        "meta_mean_motion_dot": 1.011e-05,
        "meta_mean_motion_ddot": 0,
        "tle_line1": "1 33775U 97051N   25360.17713735  .00001011  00000+0  30509-3 0  9999",
        "tle_line2": "2 33775  86.3623  43.8159 0015364 114.8502 304.1975 14.41496129883341"
      },
      "geometry": {
        "type": "Point",
        "coordinates": [
          -146.605002426158,
          70.30809825197456
        ]
      }
    },
    {
      "type": "Feature",
      "properties": {
        "norad_id": 33776,
        "name": "IRIDIUM 33 DEB",
        "group": "iridium-33-debris",
        "lat": 2.04145919900757,
        "lon": -105.17474708326081,
        "alt_km": 757.3699291869989,
        "timestamp": "2025-12-26T14:28:48.087856+00:00",
        "meta_object_name": "IRIDIUM 33 DEB",
        "meta_object_id": "1997-051P",
        "meta_epoch": "2025-12-26T05:25:03.153216",
        "meta_mean_motion": 14.38257621,
        "meta_eccentricity": 0.00158467,
        "meta_inclination": 86.4031,
        "meta_ra_of_asc_node": 75.1123,
        "meta_arg_of_pericenter": 147.7549,
        "meta_mean_anomaly": 236.0984,
        "meta_ephemeris_type": 0,
        "meta_classification_type": "U",
        "meta_norad_cat_id": 33776,
        "meta_element_set_no": 999,
        "meta_rev_at_epoch": 88276,
        "meta_bstar": 0.00026545769,
        "meta_mean_motion_dot": 8.27e-06,
        "meta_mean_motion_ddot": 0,
        "tle_line1": "1 33776U 97051P   25360.22573094  .00000827  00000+0  26546-3 0  9998",
        "tle_line2": "2 33776  86.4031  75.1123 0015846 147.7549 236.0984 14.38257621882762"
      },
      "geometry": {
        "type": "Point",
        "coordinates": [
          -105.17474708326081,
          2.04145919900757
        ]
      }
    },
    {
      "type": "Feature",
      "properties": {
        "norad_id": 33777,
        "name": "IRIDIUM 33 DEB",
        "group": "iridium-33-debris",
        "lat": 66.48361149051371,
        "lon": -159.20017027153833,
        "alt_km": 699.7718222593248,
        "timestamp": "2025-12-26T14:28:48.087869+00:00",
        "meta_object_name": "IRIDIUM 33 DEB",
        "meta_object_id": "1997-051Q",
        "meta_epoch": "2025-12-26T04:03:46.425312",
        "meta_mean_motion": 14.55704958,
        "meta_eccentricity": 0.00064384,
        "meta_inclination": 86.3774,
        "meta_ra_of_asc_node": 29.3599,
        "meta_arg_of_pericenter": 193.2461,
        "meta_mean_anomaly": 166.8579,
        "meta_ephemeris_type": 0,
        "meta_classification_type": "U",
        "meta_norad_cat_id": 33777,
        "meta_element_set_no": 999,
        "meta_rev_at_epoch": 88729,
        "meta_bstar": 0.00082325218,
        "meta_mean_motion_dot": 3.619e-05,
        "meta_mean_motion_ddot": 0,
        "tle_line1": "1 33777U 97051Q   25360.16928733  .00003619  00000+0  82325-3 0  9995",
        "tle_line2": "2 33777  86.3774  29.3599 0006438 193.2461 166.8579 14.55704958887292"
      },
      "geometry": {
        "type": "Point",
        "coordinates": [
          -159.20017027153833,
          66.48361149051371
        ]
      }
    },
    {
      "type": "Feature",
      "properties": {
        "norad_id": 33850,
        "name": "IRIDIUM 33 DEB",
        "group": "iridium-33-debris",
        "lat": 55.62580395316139,
        "lon": -161.15032733778062,
        "alt_km": 736.6098994033919,
        "timestamp": "2025-12-26T14:28:48.087882+00:00",
        "meta_object_name": "IRIDIUM 33 DEB",
        "meta_object_id": "1997-051T",
        "meta_epoch": "2025-12-26T02:30:00.751968",
        "meta_mean_motion": 14.42179658,
        "meta_eccentricity": 0.001333,
        "meta_inclination": 86.3408,
        "meta_ra_of_asc_node": 24.4322,
        "meta_arg_of_pericenter": 121.3871,
        "meta_mean_anomaly": 292.8328,
        "meta_ephemeris_type": 0,
        "meta_classification_type": "U",
        "meta_norad_cat_id": 33850,
        "meta_element_set_no": 999,
        "meta_rev_at_epoch": 88345,
        "meta_bstar": 0.0004106762,
        "meta_mean_motion_dot": 1.372e-05,
        "meta_mean_motion_ddot": 0,
        "tle_line1": "1 33850U 97051T   25360.10417537  .00001372  00000+0  41068-3 0  9999",
        "tle_line2": "2 33850  86.3408  24.4322 0013330 121.3871 292.8328 14.42179658883459"
      },
      "geometry": {
        "type": "Point",
        "coordinates": [
          -161.15032733778062,
          55.62580395316139
        ]
      }
    },
    {
      "type": "Feature",
      "properties": {
        "norad_id": 33853,
        "name": "IRIDIUM 33 DEB",
        "group": "iridium-33-debris",
        "lat": 20.036524352712792,
        "lon": 162.26949069202996,
        "alt_km": 769.5547779713006,
        "timestamp": "2025-12-26T14:28:48.087894+00:00",
        "meta_object_name": "IRIDIUM 33 DEB",
        "meta_object_id": "1997-051W",
        "meta_epoch": "2025-12-26T05:11:17.625408",
        "meta_mean_motion": 13.99125528,
        "meta_eccentricity": 0.02077866,
        "meta_inclination": 86.0002,
        "meta_ra_of_asc_node": 343.9013,
        "meta_arg_of_pericenter": 194.2596,
        "meta_mean_anomaly": 177.9632,
        "meta_ephemeris_type": 0,
        "meta_classification_type": "U",
        "meta_norad_cat_id": 33853,
        "meta_element_set_no": 999,
        "meta_rev_at_epoch": 85534,
        "meta_bstar": 0.0011694356,
        "meta_mean_motion_dot": 2.055e-05,
        "meta_mean_motion_ddot": 0,
        "tle_line1": "1 33853U 97051W   25360.21617622  .00002055  00000+0  11694-2 0  9991",
        "tle_line2": "2 33853  86.0002 343.9013 0207786 194.2596 177.9632 13.99125528855344"
      },
      "geometry": {
        "type": "Point",
        "coordinates": [
          162.26949069202996,
          20.036524352712792
        ]
      }
    }
  ]
}